[{"OBJECT_NAME":"STARLINK-31438","OBJECT_ID":"2024-049D","EPOCH":"2026-03-09T05:37:05.824416","MEAN_MOTION":15.27576815,"ECCENTRICITY":6.751e-5,"INCLINATION":43.0033,"RA_OF_ASC_NODE":135.1016,"ARG_OF_PERICENTER":220.49,"MEAN_ANOMALY":139.5902,"EPHEMERIS_TYPE":0,"CLASSIFICATION_TYPE":"U","NORAD_CAT_ID":59234,"ELEMENT_SET_NO":999,"REV_AT_EPOCH":11245,"BSTAR":-8.8894822e-5,"MEAN_MOTION_DOT":-2.707e-5,"MEAN_MOTION_DDOT":0},{"OBJECT_NAME":"TEVEL2-8","OBJECT_ID":"2025-052AF","EPOCH":"2026-03-09T16:02:08.542752","MEAN_MOTION":15.28392908,"ECCENTRICITY":0.0008031,"INCLINATION":97.4055,"RA_OF_ASC_NODE":324.2923,"ARG_OF_PERICENTER":124.9191,"MEAN_ANOMALY":235.2804,"EPHEMERIS_TYPE":0,"CLASSIFICATION_TYPE":"U","NORAD_CAT_ID":63239,"ELEMENT_SET_NO":999,"REV_AT_EPOCH":5480,"BSTAR":0.00069303947,"MEAN_MOTION_DOT":0.0001913,"MEAN_MOTION_DDOT":0}]
