STARLINK-31438          
1 59234U 24049D   26068.23409519 -.00002707  00000+0 -88895-4 0  9996
2 59234  43.0033 135.1016 0000675 220.4900 139.5902 15.27576815112459
TEVEL2-8                
1 63239U 25052AF  26068.66815442  .00019130  00000+0  69304-3 0  9993
2 63239  97.4055 324.2923 0008031 124.9191 235.2804 15.28392908 54807
